NORAD_CAT_ID,OBJECT_NAME,OBJECT_TYPE,EPOCH,MEAN_MOTION,ECCENTRICITY,INCLINATION,RA_OF_ASC_NODE,ARG_OF_PERICENTER,MEAN_ANOMALY,BSTAR,MEAN_MOTION_DOT,MEAN_MOTION_DDOT,TLE_LINE0,TLE_LINE1,TLE_LINE2,SEMIMAJOR_AXIS,PERIOD,APOGEE,PERIGEE,DECAYED
54788.0,STARLINK-5399,PAYLOAD,2023-03-27 23:29:10,15.08865028,0.0001189,53.2166,187.0184,112.7964,247.3154,0.00019987,2.897e-05,0.0,0 STARLINK-5399,1 54788U 22175AG  23086.97858882  .00002897  00000-0  19987-3 0  9996,2 54788  53.2166 187.0184 0001189 112.7964 247.3154 15.08865028 15279,6917.804,95.436,540.491,538.846,0.0
54788.0,STARLINK-5399,PAYLOAD,2023-03-28 10:36:51,15.0885468,0.0001351,53.2159,184.9346,111.0727,249.041,8.8169e-05,1.116e-05,0.0,0 STARLINK-5399,1 54788U 22175AG  23087.44226696  .00001116  00000-0  88169-4 0  9993,2 54788  53.2159 184.9346 0001351 111.0727 249.0410 15.08854680 15341,6917.836,95.437,540.635,538.766,0.0
54788.0,STARLINK-5399,PAYLOAD,2023-03-28 13:47:38,15.08858351,0.0001307,53.2158,184.3406,105.5611,254.5525,0.0016516,0.00026108,0.0,0 STARLINK-5399,1 54788U 22175AG  23087.57474720  .00026108  00000-0  16516-2 0  9993,2 54788  53.2158 184.3406 0001307 105.5611 254.5525 15.08858351 17521,6917.824,95.436,540.593,538.785,0.0
54788.0,STARLINK-5399,PAYLOAD,2023-03-28 15:23:01,15.08866127,0.0001278,53.2157,184.043,107.3259,252.7873,0.0022532,0.0003578,0.0,0 STARLINK-5399,1 54788U 22175AG  23087.64098584  .00035780  00000-0  22532-2 0  9992,2 54788  53.2157 184.0430 0001278 107.3259 252.7873 15.08866127 15376,6917.801,95.436,540.55,538.781,0.0
54788.0,STARLINK-5399,PAYLOAD,2023-03-29 12:03:01,15.08864477,0.0001441,53.216,180.1772,132.7918,227.3196,0.0019805,0.00031394,0.0,0 STARLINK-5399,1 54788U 22175AG  23088.50210533  .00031394  00000-0  19805-2 0  9994,2 54788  53.2160 180.1772 0001441 132.7918 227.3196 15.08864477 17668,6917.806,95.436,540.667,538.674,0.0
54788.0,STARLINK-5399,PAYLOAD,2023-03-29 18:24:34,15.08863603,0.0001255,53.2156,178.9881,114.7888,245.3235,0.0013852,0.0002184,0.0,0 STARLINK-5399,1 54788U 22175AG  23088.76706369  .00021840  00000-0  13852-2 0  9990,2 54788  53.2156 178.9881 0001255 114.7888 245.3235 15.08863603 15547,6917.808,95.436,540.541,538.805,0.0
54788.0,STARLINK-5399,PAYLOAD,2023-03-29 21:35:21,15.08822305,0.0001885,53.2159,178.3942,49.5895,310.5261,0.00016525,2.342e-05,0.0,0 STARLINK-5399,1 54788U 22175AG  23088.89955310  .00002342  00000-0  16525-3 0  9993,2 54788  53.2159 178.3942 0001885  49.5895 310.5261 15.08822305 17724,6917.934,95.439,541.104,538.495,0.0
54788.0,STARLINK-5399,PAYLOAD,2023-03-29 23:10:44,15.08834502,0.0001182,53.2159,178.0931,88.1882,271.9245,0.00031628,4.749e-05,0.0,0 STARLINK-5399,1 54788U 22175AG  23088.96578941  .00004749  00000-0  31628-3 0  9996,2 54788  53.2159 178.0931 0001182  88.1882 271.9245 15.08834502 15579,6917.897,95.438,540.58,538.944,0.0
54788.0,STARLINK-5399,PAYLOAD,2023-03-30 11:53:49,15.08861347,0.0001142,53.2152,175.7159,73.2009,286.9109,0.0022914,0.0003639,0.0,0 STARLINK-5399,1 54788U 22175AG  23089.49570688  .00036390  00000-0  22914-2 0  9999,2 54788  53.2152 175.7159 0001142  73.2009 286.9109 15.08861347 15651,6917.815,95.436,540.47,538.89,0.0
54788.0,STARLINK-5399,PAYLOAD,2023-03-30 18:15:20,15.08893575,0.000133,53.2153,174.5256,72.1173,287.9964,0.0031672,0.00050554,0.0,0 STARLINK-5399,1 54788U 22175AG  23089.76065962  .00050554  00000-0  31672-2 0  9992,2 54788  53.2153 174.5256 0001330  72.1173 287.9964 15.08893575 15698,6917.717,95.434,540.502,538.662,0.0
54788.0,STARLINK-5399,PAYLOAD,2023-03-31 10:09:12,15.08861148,0.0001226,53.2164,171.552,69.8789,290.2335,0.0023266,0.00036956,0.0,0 STARLINK-5399,1 54788U 22175AG  23090.42306412  .00036956  00000-0  23266-2 0  9995,2 54788  53.2164 171.5520 0001226  69.8789 290.2335 15.08861148 15792,6917.816,95.436,540.529,538.833,0.0
54788.0,STARLINK-5399,PAYLOAD,2023-04-01 05:13:50,15.08813233,0.000166,53.2151,167.9842,130.431,229.6827,0.0022643,0.00035906,0.0,0 STARLINK-5399,1 54788U 22175AG  23091.21795036  .00035906  00000-0  22643-2 0  9999,2 54788  53.2151 167.9842 0001660 130.4310 229.6827 15.08813233 15919,6917.962,95.439,540.976,538.679,0.0
54788.0,STARLINK-5399,PAYLOAD,2023-04-01 11:35:23,15.08829096,0.0001301,53.2167,166.7956,112.3562,247.7568,0.00167,0.00026382,0.0,0 STARLINK-5399,1 54788U 22175AG  23091.48291341  .00026382  00000-0  16700-2 0  9993,2 54788  53.2167 166.7956 0001301 112.3562 247.7568 15.08829096 18111,6917.914,95.438,540.679,538.879,0.0
54788.0,STARLINK-5399,PAYLOAD,2023-04-01 16:21:33,15.08839791,0.0001332,53.216,165.9031,106.4189,253.6949,0.0022057,0.0003499,0.0,0 STARLINK-5399,1 54788U 22175AG  23091.68163521  .00034990  00000-0  22057-2 0  9999,2 54788  53.2160 165.9031 0001332 106.4189 253.6949 15.08839791 18147,6917.881,95.438,540.667,538.825,0.0
54788.0,STARLINK-5399,PAYLOAD,2023-04-02 05:04:38,15.08863445,0.0001453,53.2173,163.5224,113.2405,246.8741,0.0022795,0.000362,0.0,0 STARLINK-5399,1 54788U 22175AG  23092.21155438  .00036200  00000-0  22795-2 0  9992,2 54788  53.2173 163.5224 0001453 113.2405 246.8741 15.08863445 16066,6917.809,95.436,540.679,538.669,0.0
54788.0,STARLINK-5399,PAYLOAD,2023-04-02 09:50:47,15.08860838,0.000144,53.2168,162.6342,98.6842,261.4313,0.0014639,0.000231,0.0,0 STARLINK-5399,1 54788U 22175AG  23092.41027340  .00023100  00000-0  14639-2 0  9997,2 54788  53.2168 162.6342 0001440  98.6842 261.4313 15.08860838 16092,6917.817,95.436,540.678,538.686,0.0
54788.0,STARLINK-5399,PAYLOAD,2023-04-02 11:26:10,15.08861591,0.0001454,53.2166,162.3371,97.6049,262.5108,0.0013068,0.00020583,0.0,0 STARLINK-5399,1 54788U 22175AG  23092.47651248  .00020583  00000-0  13068-2 0  9990,2 54788  53.2166 162.3371 0001454  97.6049 262.5108 15.08861591 18264,6917.814,95.436,540.685,538.674,0.0
54788.0,STARLINK-5399,PAYLOAD,2023-04-02 14:36:56,15.0887064,0.0001444,53.2169,161.7423,97.0437,263.0719,0.0014891,0.0002351,0.0,0 STARLINK-5399,1 54788U 22175AG  23092.60898949  .00023510  00000-0  14891-2 0  9994,2 54788  53.2169 161.7423 0001444  97.0437 263.0719 15.08870640 18283,6917.787,95.436,540.651,538.653,0.0
54788.0,STARLINK-5399,PAYLOAD,2023-04-03 04:55:25,15.08845617,0.0001657,53.2161,159.0675,99.7271,260.3908,0.00056585,8.73e-05,0.0,0 STARLINK-5399,1 54788U 22175AG  23093.20515141  .00008730  00000-0  56585-3 0  9995,2 54788  53.2161 159.0675 0001657  99.7271 260.3908 15.08845617 16212,6917.863,95.437,540.875,538.582,0.0
54788.0,STARLINK-5399,PAYLOAD,2023-04-03 11:16:57,15.08848334,0.0001338,53.217,157.8729,102.6747,257.4394,0.00036403,5.512e-05,0.0,0 STARLINK-5399,1 54788U 22175AG  23093.47011002  .00005512  00000-0  36403-3 0  9993,2 54788  53.2170 157.8729 0001338 102.6747 257.4394 15.08848334 18415,6917.855,95.437,540.646,538.794,0.0
54788.0,STARLINK-5399,PAYLOAD,2023-04-03 20:49:16,15.08837996,8.74e-05,53.2174,156.0909,123.5169,236.5907,0.00015484,2.177e-05,0.0,0 STARLINK-5399,1 54788U 22175AG  23093.86754709  .00002177  00000-0  15484-3 0  9994,2 54788  53.2174 156.0909 0000874 123.5169 236.5907 15.08837996 16311,6917.887,95.438,540.356,539.147,0.0
54788.0,STARLINK-5399,PAYLOAD,2023-04-04 12:43:07,15.08857171,0.0001258,53.2165,153.1167,82.885,277.2285,0.0013277,0.00020915,0.0,0 STARLINK-5399,1 54788U 22175AG  23094.52994958  .00020915  00000-0  13277-2 0  9997,2 54788  53.2165 153.1167 0001258  82.8850 277.2285 15.08857171 18574,6917.828,95.436,540.563,538.823,0.0
54788.0,STARLINK-5399,PAYLOAD,2023-04-04 14:18:30,15.08860448,0.0001258,53.2164,152.8193,83.4055,276.708,0.0013503,0.00021279,0.0,0 STARLINK-5399,1 54788U 22175AG  23094.59618868  .00021279  00000-0  13503-2 0  9993,2 54788  53.2164 152.8193 0001258  83.4055 276.7080 15.08860448 16422,6917.818,95.436,540.553,538.813,0.0
54788.0,STARLINK-5399,PAYLOAD,2023-04-05 03:01:36,15.08836159,0.0001217,53.2157,150.4391,110.1427,249.9696,0.00039836,6.057e-05,0.0,0 STARLINK-5399,1 54788U 22175AG  23095.12611249  .00006057  00000-0  39836-3 0  9994,2 54788  53.2157 150.4391 0001217 110.1427 249.9696 15.08836159 16500,6917.892,95.438,540.599,538.915,0.0
54788.0,STARLINK-5399,PAYLOAD,2023-04-05 10:58:31,15.08839657,0.000104,53.2158,148.9525,107.4115,252.6991,0.00030305,4.538e-05,0.0,0 STARLINK-5399,1 54788U 22175AG  23095.45731312  .00004538  00000-0  30305-3 0  9998,2 54788  53.2158 148.9525 0001040 107.4115 252.6991 15.08839657 18719,6917.881,95.438,540.466,539.027,0.0
54788.0,STARLINK-5399,PAYLOAD,2023-04-06 02:52:23,15.08843074,0.0001294,53.216,145.9793,93.65,266.464,0.00063799,9.881e-05,0.0,0 STARLINK-5399,1 54788U 22175AG  23096.11971703  .00009881  00000-0  63799-3 0  9991,2 54788  53.2160 145.9793 0001294  93.6500 266.4640 15.08843074 16654,6917.871,95.437,540.631,538.841,0.0
54788.0,STARLINK-5399,PAYLOAD,2023-04-06 12:24:42,15.08849266,0.0001122,53.2155,144.1954,93.4753,266.6368,0.00055697,8.59e-05,0.0,0 STARLINK-5399,1 54788U 22175AG  23096.51715438  .00008590  00000-0  55697-3 0  9990,2 54788  53.2155 144.1954 0001122  93.4753 266.6368 15.08849266 18870,6917.852,95.437,540.493,538.941,0.0
54788.0,STARLINK-5399,PAYLOAD,2023-04-06 20:21:37,15.08849962,7.34e-05,53.2155,142.7085,241.9848,118.107,0.00042797,6.532e-05,0.0,0 STARLINK-5399,1 54788U 22175AG  23096.84834721  .00006532  00000-0  42797-3 0  9994,2 54788  53.2155 142.7085 0000734 241.9848 118.1070 15.08849962 18922,6917.85,95.437,540.223,539.207,0.0
54788.0,STARLINK-5399,PAYLOAD,2023-04-07 09:04:43,15.08846021,0.0001265,53.2158,140.3305,82.4014,277.7122,0.00028407,4.237e-05,0.0,0 STARLINK-5399,1 54788U 22175AG  23097.37827601  .00004237  00000-0  28407-3 0  9994,2 54788  53.2158 140.3305 0001265  82.4014 277.7122 15.08846021 16849,6917.862,95.437,540.602,538.852,0.0
54788.0,STARLINK-5399,PAYLOAD,2023-04-07 20:12:24,15.08840124,6.69e-05,53.2151,138.2483,91.7667,268.3402,0.00012049,1.63e-05,0.0,0 STARLINK-5399,1 54788U 22175AG  23097.84195351  .00001630  00000-0  12049-3 0  9995,2 54788  53.2151 138.2483 0000669  91.7667 268.3402 15.08840124 16912,6917.88,95.438,540.208,539.282,0.0
